#aV2010  4  9  0  0   .00000000      96 DD+AD WGS84 FIT  NGA
## 1578 432000.00000000   900.00000000 55295  .0000000000000
+   30     1  2  3  4  5  6  7  8 10 11 12 13 14 15 16 17 18
+         19 20 21 22 23 24 26 27 28 29 30 31 32  0  0  0  0
+          0  0  0  0  0  0  0  0  0  0  0  0  0  0  0  0  0
+          0  0  0  0  0  0  0  0  0  0  0  0  0  0  0  0  0
+          0  0  0  0  0  0  0  0  0  0  0  0  0  0  0  0  0
++         0  0  0  0  0  0  0  0  0  0  0  0  0  0  0  0  0
++         0  0  0  0  0  0  0  0  0  0  0  0  0  0  0  0  0
++         0  0  0  0  0  0  0  0  0  0  0  0  0  0  0  0  0
++         0  0  0  0  0  0  0  0  0  0  0  0  0  0  0  0  0
++         0  0  0  0  0  0  0  0  0  0  0  0  0  0  0  0  0
%c cc cc ccc ccc cccc cccc cccc cccc ccccc ccccc ccccc ccccc
%c cc cc ccc ccc cccc cccc cccc cccc ccccc ccccc ccccc ccccc
%f  0.0000000  0.000000000  0.00000000000  0.000000000000000
%f  0.0000000  0.000000000  0.00000000000  0.000000000000000
%i    0    0    0    0      0      0      0      0         0
%i    0    0    0    0      0      0      0      0         0
/*      NGA, ST. LOUIS,MO.                                  
/*   EPHEMERIS COMPUTED FROM  3 DAYS OF DATA                
/* CCCCCCCCCCCCCCCCCCCCCCCCCCCCCCCCCCCCCCCCCCCCCCCCCCCCCCCCC
/* CCCCCCCCCCCCCCCCCCCCCCCCCCCCCCCCCCCCCCCCCCCCCCCCCCCCCCCCC
*  2010  4  9  1  0   .00000000                                                 
P  1  19673.123076   8269.800516  15809.794832   -107.332972                    
V  1  10480.907635  17359.183352 -21829.466050      -.040518                    
P  2 -14730.294643  14078.481998  16756.084169    244.608759                    
V  2 -21727.753615    151.031488 -19632.552856       .037040                    
P  3   9585.594352 -24390.554271   2596.713155    539.348378                    
V  3   2882.430633   4842.254120  30973.752009       .051300                    
P  4 -25650.303777   5957.833661   4557.654521     55.699028                    
V  4  -6240.318419  -2506.328055 -30338.616276       .086510                    
P  5  -4060.643684  17581.368371  19440.545570     -1.983970                    
V  5 -15682.758301 -19211.836673  14167.093197       .003129                    
P  6  13566.337545 -21887.109617   6397.201413    671.025176                    
V  6    448.910397   8705.106392  29811.670203      -.089762                    
P  7 -21528.997144  -7324.679568  13845.647923       .710985                    
V  7  17240.110723  -3580.548229  24737.543630      -.003805                    
P  8 -26741.174555   -605.181410   2330.946329      4.741209                    
V  8   2879.453694  -1448.257290  31916.633855       .002775                    
P 10 -11376.824484  10319.990491  21462.056357    -39.869259                    
V 10 -16104.548156 -22594.646371   2650.152899      -.009836                    
P 11  -8458.039106 -14805.207211 -20652.940244    -55.391130                    
V 11  24386.056631  -8909.612390  -3277.267711      -.022894                    
P 12  11013.651628  23316.128650  -6631.208162   -128.900540                    
V 12  -6772.922948  -5550.491454 -30365.728330       .044467                    
P 13  -9469.604848 -12090.151365  21528.481663    305.480676                    
V 13  13321.467364 -24154.724848  -7673.984649      -.002926                    
P 14  17416.803887  -7559.769144 -18385.235413     31.605936                    
V 14  -9530.093685  21630.992819 -17910.878869       .046752                    
P 15  -5655.390150  25045.125122  -6542.808717   -288.958939                    
V 15  -6036.993858   6514.834586  30197.817972       .046068                    
P 16   9474.796342 -12267.829460  21581.795142    -59.597695                    
V 16  15907.064817  22191.406659   5909.026810      -.038989                    
P 17 -17622.118807   7299.541758 -18292.874600    142.944803                    
V 17   8554.811758 -21964.905503 -17120.331814       .025906                    
P 18  19273.685855  15861.219646  -9342.989236     60.643141                    
V 18   4467.752184  11684.057794  27885.095218       .024370                    
P 19   6648.675798 -24218.802754  -8124.670673    -26.814228                    
V 19   7583.113169  -7778.226636  29557.637034      -.025640                    
P 20 -13511.457186 -22535.897706  -4208.799404     58.065745                    
V 20   5879.326475   2010.248253 -30589.782464      -.006508                    
P 21  24383.211757   5402.242111  10229.931250    -52.187176                    
V 21 -12083.084194   3785.783877  27043.658769      -.025468                    
P 22  18963.173781   4267.014571 -17977.701172    174.977326                    
V 22  11482.397017  20255.749062  16685.530250      -.007943                    
P 23  -3791.262532 -19875.290122  17012.086114    374.858290                    
V 23  10683.442295 -19044.024789 -20136.254903      -.012195                    
P 24  24679.687194   4686.924452   8358.852918    277.530315                    
V 24 -10395.934546   3643.646489  29190.112058       .030930                    
P 26   7208.587081  15474.570973 -20744.020414    -37.146839                    
V 26 -12471.145206  21916.585121  12771.903749      -.044898                    
P 27  -1044.742409  14740.290828 -21376.093001    141.404383                    
V 27 -28465.904707   4108.115333   4229.361327       .033175                    
P 28 -18925.568258  -7545.419431 -16720.093015    -18.894461                    
V 28 -10989.019760 -19140.844853  20215.182603       .007448                    
P 29   9565.523897  13628.017159  20798.065161    111.164790                    
V 29 -12144.341571  23210.402149  -9630.148779       .029602                    
P 30  17821.794625  19510.391295   2572.101837    232.005174                    
V 30      4.402447   4767.229992 -31372.891551       .034408                    
P 31  24527.159037  -7539.102201   7413.302673    -43.196773                    
V 31   9227.344964   1071.270045 -30131.438986       .020942                    
P 32  -5091.277838 -23585.131639 -11125.064277     55.755204                    
V 32   9468.166568  11268.691712 -27047.605890      -.085803                    
EOF
